{"fetched_at":"2026-03-29T16:36:15Z","count":15609,"tles":[{"name":"STARLINK-3796","line1":"1 52372U 22045AT  26087.77066713  .00000003  00000+0  18287-4 0  9994","line2":"2 52372  53.2165 103.4623 0001292  85.9052 274.2087 15.08841375218794","category":"Starlink"}]}