{
  "norad_id": 52372,
  "name": "STARLINK-3796",
  "history": [
    {
      "epoch": "2026-03-28T18:29:45.640032Z",
      "apogee_km": 540.6335291757159,
      "perigee_km": 538.8448431090274,
      "latitude_deg": -7.006586896946991e-05,
      "longitude_deg": -0.16425895832731527,
      "height_km": 540.5710439937237,
      "semi_major_axis_km": 6917.876186142372,
      "eccentricity": 0.00012928,
      "inclination_deg": 53.2165,
      "raan_deg": 103.4623,
      "arg_perigee_deg": 85.9052,
      "mean_anomaly_deg": 274.2087,
      "mean_motion_rev_day": 15.08841375
    }
  ]
}